COMMENT,ORIGINATOR,NORAD_CAT_ID,OBJECT_NAME,OBJECT_TYPE,CLASSIFICATION_TYPE,INTLDES,EPOCH,EPOCH_MICROSECONDS,MEAN_MOTION,ECCENTRICITY,INCLINATION,RA_OF_ASC_NODE,ARG_OF_PERICENTER,MEAN_ANOMALY,EPHEMERIS_TYPE,ELEMENT_SET_NO,REV_AT_EPOCH,BSTAR,MEAN_MOTION_DOT,MEAN_MOTION_DDOT,FILE,TLE_LINE0,TLE_LINE1,TLE_LINE2,OBJECT_ID,OBJECT_NUMBER,SEMIMAJOR_AXIS,PERIOD,APOGEE,PERIGEE
"GENERATED VIA SPACETRACK.ORG API","JSPOC","12851","SL-12 R/B(2)","ROCKET BODY","U","81061F","2016-01-11 14:44:20","647104","1.01009225","0.0003881","13.4694","332.8237","279.0128","118.1176","0","999","8557","0","5.1e-07","0","1979097","0 SL-12 R/B(2)","1 12851U 81061F   16011.61412786  .00000051  00000-0  00000+0 0  9992","2 12851  13.4694 332.8237 0003881 279.0128 118.1176  1.01009225 85573","1981-061F","12851","41959.259","1425.612","35597.408","35564.840"
"GENERATED VIA SPACETRACK.ORG API","JSPOC","33754","ARIANE 5 R/B","ROCKET BODY","U","09008F","2016-01-11 14:44:35","312640","2.36377208","0.7212648","2.333","302.8055","148.9907","288.9456","0","999","5831","0.0009955","3.214e-05","0","1979135","0 ARIANE 5 R/B","1 33754U 09008F   16011.61429760  .00003214  00000-0  99550-3 0  9994","2 33754   2.3330 302.8055 7212648 148.9907 288.9456  2.36377208 58313","2009-008F","33754","23804.813","609.195","34596.251","257.104"
"GENERATED VIA SPACETRACK.ORG API","JSPOC","38778","ASTRA 2F","PAYLOAD","U","12051A","2016-01-11 14:44:49","586784","1.00268826","0.0003703","0.089","246.6852","2.4222","110.8452","0","999","1209","0","1.51e-06","0","1979327","0 ASTRA 2F","1 38778U 12051A   16011.61446281  .00000151  00000-0  00000+0 0  9999","2 38778   0.0890 246.6852 0003703   2.4222 110.8452  1.00268826 12096","2012-051A","38778","42165.561","1436.139","35803.040","35771.812"
"GENERATED VIA SPACETRACK.ORG API","JSPOC","16262","COSMOS 1703","PAYLOAD","U","85108A","2016-01-11 14:44:49","536672","15.09323235","0.0008393","82.4883","42.7553","264.9355","95.0916","0","999","63978","0.00010721","1.739e-05","0","1979502","0 COSMOS 1703","1 16262U 85108A   16011.61446223 +.00001739 +00000-0 +10721-3 0  9990","2 16262 082.4883 042.7553 0008393 264.9355 095.0916 15.09323235639781","1985-108A","16262","6916.403","95.406","544.073","532.463"
"GENERATED VIA SPACETRACK.ORG API","JSPOC","40364","ASTRA 2G","PAYLOAD","U","14089A","2016-01-11 14:45:00","228672","1.00272571","0.0001971","0.0433","323.9853","63.754","332.2636","0","999","382","0","1.51e-06","0","1979208","0 ASTRA 2G","1 40364U 14089A   16011.61458598  .00000151  00000-0  00000+0 0  9990","2 40364   0.0433 323.9853 0001971  63.7540 332.2636  1.00272571  3828","2014-089A","40364","42164.511","1436.085","35794.687","35778.065"
"GENERATED VIA SPACETRACK.ORG API","JSPOC","7678","COSMOS 711","PAYLOAD","U","75016A","2016-01-11 14:45:12","699648","12.4703549","0.0020198","74.0025","62.4189","206.7003","309.7757","0","999","86040","7.9919e-06","-1.5e-07","0","1979502","0 COSMOS 711","1  7678U 75016A   16011.61473032 -.00000015 +00000-0 +79919-5 0  9999","2  7678 074.0025 062.4189 0020198 206.7003 309.7757 12.47035490860407","1975-016A","7678","7855.056","115.473","1492.786","1461.055"
"GENERATED VIA SPACETRACK.ORG API","JSPOC","23027","NAVSTAR 36 (USA 100)","PAYLOAD","U","94016A","2016-01-11 14:46:10","915968","2.00566062","0.0104208","54.5145","56.5495","8.493","60.0528","0","999","16003","0","-2.7e-07","0","1979017","0 NAVSTAR 36 (USA 100)","1 23027U 94016A   16011.61540412 -.00000027  00000-0  00000+0 0  9995","2 23027  54.5145  56.5495 0104208   8.4930  60.0528  2.00566062160031","1994-016A","23027","26560.130","717.967","20458.773","19905.218"
"GENERATED VIA SPACETRACK.ORG API","JSPOC","24841","IRIDIUM 16","PAYLOAD","U","97030F","2016-01-11 14:46:22","940256","14.36598695","0.0002512","86.4032","208.8157","146.1754","213.9604","0","999","97255","5.4834e-05","1.81e-06","0","1979037","0 IRIDIUM 16","1 24841U 97030F   16011.61554329  .00000181  00000-0  54834-4 0  9990","2 24841  86.4032 208.8157 0002512 146.1754 213.9604 14.36598695972552","1997-030F","24841","7147.895","100.236","771.556","767.964"
"GENERATED VIA SPACETRACK.ORG API","JSPOC","11474","MOLNIYA 1-44","PAYLOAD","U","79070A","2016-01-11 14:46:33","363552","11.18664538","0.2212171","62.0972","58.066","285.8893","51.0512","0","999","50254","0.00065663","0.00120072","2.1916e-06","1979168","0 MOLNIYA 1-44","1 11474U 79070A   16011.61566393  .00120072  21916-5  65663-3 0  9993","2 11474  62.0972  58.0660 2212171 285.8893  51.0512 11.18664538502542","1979-070A","11474","8445.044","128.724","3935.097","198.721"
"GENERATED VIA SPACETRACK.ORG API","JSPOC","25291","IRIDIUM 68","PAYLOAD","U","98021G","2016-01-11 14:46:41","499840","14.34216346","0.0002091","86.3964","82.4843","95.072","265.0715","0","999","93009","8.8039e-05","2.66e-06","0","1979039","0 IRIDIUM 68","1 25291U 98021G   16011.61575810  .00000266  00000-0  88039-4 0  9997","2 25291  86.3964  82.4843 0002091  95.0720 265.0715 14.34216346930092","1998-021G","25291","7155.808","100.403","779.170","776.177"
"GENERATED VIA SPACETRACK.ORG API","JSPOC","28773","ASTRO E2","PAYLOAD","U","05025A","2016-01-11 14:47:40","308864","15.14081655","0.0005036","31.3837","81.3669","150.0865","210.007","0","999","57805","0.00012749","2.463e-05","0","1979502","0 ASTRO E2","1 28773U 05025A   16011.61643876 +.00002463 +00000-0 +12749-3 0  9990","2 28773 031.3837 081.3669 0005036 150.0865 210.0070 15.14081655578057","2005-025A","28773","6901.904","95.107","527.245","520.294"
"GENERATED VIA SPACETRACK.ORG API","JSPOC","11321","SL-8 R/B","ROCKET BODY","U","79028B","2016-01-11 14:47:45","220704","13.76432591","0.0017698","82.9207","51.7305","246.1032","272.3729","0","999","84587","-1.4224e-05","1e-08","0","1979502","0 SL-8 R/B","1 11321U 79028B   16011.61649561 +.00000001 +00000-0 -14224-4 0  9990","2 11321 082.9207 051.7305 0017698 246.1032 272.3729 13.76432591845873","1979-028B","11321","7354.704","104.618","989.585","963.552"
"GENERATED VIA SPACETRACK.ORG API","JSPOC","25528","IRIDIUM 86","PAYLOAD","U","98066B","2016-01-11 14:48:05","954112","14.34219521","0.0001671","86.3952","208.2446","85.2288","274.9098","0","999","90422","-2.2349e-06","1.4e-07","0","1979502","0 IRIDIUM 86","1 25528U 98066B   16011.61673558 +.00000014 +00000-0 -22349-5 0  9992","2 25528 086.3952 208.2446 0001671 085.2288 274.9098 14.34219521904229","1998-066B","25528","7155.798","100.403","778.858","776.467"
"GENERATED VIA SPACETRACK.ORG API","JSPOC","16969","NOAA 10","PAYLOAD","U","86073A","2016-01-11 14:48:25","421760","14.27945306","0.0012422","98.4762","30.0971","16.9734","133.8696","0","999","52559","3.2345e-05","3.8e-07","0","1979502","0 NOAA 10","1 16969U 86073A   16011.61696090 +.00000038 +00000-0 +32345-4 0  9993","2 16969 098.4762 030.0971 0012422 016.9734 133.8696 14.27945306525593","1986-073A","16969","7176.744","100.844","807.524","789.694"
"GENERATED VIA SPACETRACK.ORG API","JSPOC","16250","RADUGA 17","PAYLOAD","U","85107A","2016-01-11 14:48:26","879328","1.00169592","0.0011192","14.6257","352.6543","144.7161","28.3483","0","999","11364","0","8.1e-07","0","1979071","0 RADUGA 17","1 16250U 85107A   16011.61697777  .00000081  00000-0  00000+0 0  9992","2 16250  14.6257 352.6543 0011192 144.7161  28.3483  1.00169592113643","1985-107A","16250","42193.404","1437.562","35862.492","35768.046"
"GENERATED VIA SPACETRACK.ORG API","JSPOC","15144","GORIZONT 10","PAYLOAD","U","84078A","2016-01-11 14:48:26","879328","1.0030181","0.0005118","14.4929","348.5584","232.4932","304.4238","0","999","11637","0","9.3e-07","0","1979502","0 GORIZONT 10","1 15144U 84078A   16011.61697777 +.00000093 +00000-0 +00000-0 0  9993","2 15144 014.4929 348.5584 0005118 232.4932 304.4238 01.00301810116379","1984-078A","15144","42156.316","1435.667","35799.757","35756.606"
"GENERATED VIA SPACETRACK.ORG API","JSPOC","1506","SECOR 5 (EGRS 5)","PAYLOAD","U","65063A","2016-01-11 14:48:27","530784","11.78616809","0.0792234","69.2307","248.4726","307.6238","67.6372","0","999","16933","2.1506e-05","-3.1e-07","0","1979502","0 SECOR 5 (EGRS 5)","1  1506U 65063A   16011.61698531 -.00000031 +00000-0 +21506-4 0  9993","2  1506 069.2307 248.4726 0792234 307.6238 067.6372 11.78616809169330","1965-063A","1506","8156.179","122.177","2424.204","1131.883"
"GENERATED VIA SPACETRACK.ORG API","JSPOC","20631","SL-12 R/B(AUX MOTOR)","ROCKET BODY","U","90045G","2016-01-11 14:48:50","933088","4.45839441","0.551594","64.9044","102.7946","304.8142","14.9787","0","999","40657","0.00038407","1.18e-06","0","1979114","0 SL-12 R/B(AUX MOTOR)","1 20631U 90045G   16011.61725617  .00000118  00000-0  38407-3 0  9999","2 20631  64.9044 102.7946 5515940 304.8142  14.9787  4.45839441406571","1990-045G","20631","15593.712","322.986","17816.975","614.179"
"GENERATED VIA SPACETRACK.ORG API","JSPOC","21903","SL-8 R/B","ROCKET BODY","U","92012B","2016-01-11 14:49:27","289344","13.74434301","0.0043854","82.9353","210.7675","107.8579","285.335","0","999","19552","-5.5807e-05","-3.7e-07","0","1979502","0 SL-8 R/B","1 21903U 92012B   16011.61767696 -.00000037 +00000-0 -55807-4 0  9997","2 21903 082.9353 210.7675 0043854 107.8579 285.3350 13.74434301195524","1992-012B","21903","7361.831","104.770","1015.980","951.411"
"GENERATED VIA SPACETRACK.ORG API","JSPOC","7274","METEOR 1-17","PAYLOAD","U","74025A","2016-01-11 14:49:32","842272","14.08339838","0.0016248","81.2222","46.9059","280.822","79.1121","0","999","14202","7.14e-05","1.34e-06","0","1979502","0 METEOR 1-17","1  7274U 74025A   16011.61774123 +.00000134 +00000-0 +71400-4 0  9992","2  7274 081.2222 046.9059 0016248 280.8220 079.1121 14.08339838142022","1974-025A","7274","7243.195","102.248","876.829","853.291"
